STARLINK-5729           
1 55596U 23020AD  26064.29923403  .00001197  00000+0  10366-3 0  9993
2 55596  43.0046  28.0844 0001320 271.0235  89.0456 15.02542002168267
STARLINK-5743           
1 55597U 23020AE  26064.29185144  .00003074  00000+0  24249-3 0  9997
2 55597  43.0045  15.9281 0001204 271.0247  89.0458 15.02541747168404
STARLINK-5756           
1 55598U 23020AF  26064.23536507 -.00002282  00000+0 -15398-3 0  9992
2 55598  43.0068  16.3291 0001866 263.1033  96.9597 15.02521460168394
STARLINK-5761           
1 55599U 23020AG  26064.29849769  .00001116  00000+0  97676-4 0  9999
2 55599  43.0056  15.9471 0001743 273.2422  86.8221 15.02537635168400
STARLINK-5755           
1 55600U 23020AH  26064.21982057  .00000439  00000+0  47596-4 0  9995
2 55600  43.0042  16.2356 0001143 269.3785  90.6926 15.02532202168394
STARLINK-5744           
1 55601U 23020AJ  26064.25003472  .00063352  00000+0  43685-2 0  9991
2 55601  43.0009  28.2937 0001239 306.6655 172.1062 15.04981140  5829
STARLINK-5764           
1 55602U 23020AK  26064.29628534  .00000619  00000+0  60914-4 0  9991
2 55602  43.0004  15.9318 0001463 262.6445  97.4231 15.02526929168407
STARLINK-5735           
1 55603U 23020AL  26064.22314219 -.00000301  00000+0 -71589-5 0  9998
2 55603  43.0100  16.2530 0003414 239.0777 120.9730 15.02528145168395
STARLINK-5748           
1 55604U 23020AM  26064.25003472  .00092574  00000+0  59963-2 0  9998
2 55604  43.0009   2.6378 0001630 266.8069  75.3841 15.07108683  5823
STARLINK-5725           
1 55605U 23020AN  26064.21870745  .00000391  00000+0  43988-4 0  9998
2 55605  43.0043  16.2202 0000989 264.5016  95.5714 15.02538921168394
STARLINK-5700           
1 55607U 23020AQ  26064.21204854 -.00000235  00000+0 -22895-5 0  9996
2 55607  43.0071  16.1751 0001776 258.9919 101.0724 15.02537473168394
STARLINK-5726           
1 55608U 23020AR  26064.20982706 -.00000415  00000+0 -15657-4 0  9992
2 55608  43.0048  16.1591 0001252 265.0928  94.9772 15.02535215168394
STARLINK-5719           
1 55609U 23020AS  26064.28185530  .00000293  00000+0  36767-4 0  9998
2 55609  43.0066  15.8393 0001590 258.6406 101.4258 15.02533670168403
STARLINK-5722           
1 55610U 23020AT  26064.20206166 -.00000037  00000+0  12323-4 0  9990
2 55610  43.0052  16.1030 0001105 277.6749  82.3967 15.02535477168394
STARLINK-5730           
1 55611U 23020AU  26064.26631623  .00001827  00000+0  15026-3 0  9996
2 55611  43.0052  15.7239 0001077 261.7620  98.3100 15.02547937168403
STARLINK-5734           
1 55612U 23020AV  26064.26521181 -.00000658  00000+0 -33620-4 0  9998
2 55612  43.0054  15.7151 0001140 268.0696  92.0015 15.02530966168403
