[{"OBJECT_NAME":"STARLINK-5729","OBJECT_ID":"2023-020AD","EPOCH":"2026-03-05T07:10:53.820192","MEAN_MOTION":15.02542002,"ECCENTRICITY":0.00013204,"INCLINATION":43.0046,"RA_OF_ASC_NODE":28.0844,"ARG_OF_PERICENTER":271.0235,"MEAN_ANOMALY":89.0456,"EPHEMERIS_TYPE":0,"CLASSIFICATION_TYPE":"U","NORAD_CAT_ID":55596,"ELEMENT_SET_NO":999,"REV_AT_EPOCH":16826,"BSTAR":0.00010365941,"MEAN_MOTION_DOT":1.197e-5,"MEAN_MOTION_DDOT":0},{"OBJECT_NAME":"STARLINK-5743","OBJECT_ID":"2023-020AE","EPOCH":"2026-03-05T07:00:15.964416","MEAN_MOTION":15.02541747,"ECCENTRICITY":0.00012045,"INCLINATION":43.0045,"RA_OF_ASC_NODE":15.9281,"ARG_OF_PERICENTER":271.0247,"MEAN_ANOMALY":89.0458,"EPHEMERIS_TYPE":0,"CLASSIFICATION_TYPE":"U","NORAD_CAT_ID":55597,"ELEMENT_SET_NO":999,"REV_AT_EPOCH":16840,"BSTAR":0.00024248844,"MEAN_MOTION_DOT":3.074e-5,"MEAN_MOTION_DDOT":0},{"OBJECT_NAME":"STARLINK-5756","OBJECT_ID":"2023-020AF","EPOCH":"2026-03-05T05:38:55.542048","MEAN_MOTION":15.0252146,"ECCENTRICITY":0.00018669,"INCLINATION":43.0068,"RA_OF_ASC_NODE":16.3291,"ARG_OF_PERICENTER":263.1033,"MEAN_ANOMALY":96.9597,"EPHEMERIS_TYPE":0,"CLASSIFICATION_TYPE":"U","NORAD_CAT_ID":55598,"ELEMENT_SET_NO":999,"REV_AT_EPOCH":16839,"BSTAR":-0.00015397523,"MEAN_MOTION_DOT":-2.282e-5,"MEAN_MOTION_DDOT":0},{"OBJECT_NAME":"STARLINK-5761","OBJECT_ID":"2023-020AG","EPOCH":"2026-03-05T07:09:50.200416","MEAN_MOTION":15.02537635,"ECCENTRICITY":0.00017433,"INCLINATION":43.0056,"RA_OF_ASC_NODE":15.9471,"ARG_OF_PERICENTER":273.2422,"MEAN_ANOMALY":86.8221,"EPHEMERIS_TYPE":0,"CLASSIFICATION_TYPE":"U","NORAD_CAT_ID":55599,"ELEMENT_SET_NO":999,"REV_AT_EPOCH":16840,"BSTAR":9.7675643e-5,"MEAN_MOTION_DOT":1.116e-5,"MEAN_MOTION_DDOT":0},{"OBJECT_NAME":"STARLINK-5755","OBJECT_ID":"2023-020AH","EPOCH":"2026-03-05T05:16:32.497248","MEAN_MOTION":15.02532202,"ECCENTRICITY":0.00011435,"INCLINATION":43.0042,"RA_OF_ASC_NODE":16.2356,"ARG_OF_PERICENTER":269.3785,"MEAN_ANOMALY":90.6926,"EPHEMERIS_TYPE":0,"CLASSIFICATION_TYPE":"U","NORAD_CAT_ID":55600,"ELEMENT_SET_NO":999,"REV_AT_EPOCH":16839,"BSTAR":4.7595727e-5,"MEAN_MOTION_DOT":4.39e-6,"MEAN_MOTION_DDOT":0},{"OBJECT_NAME":"STARLINK-5744","OBJECT_ID":"2023-020AJ","EPOCH":"2026-03-05T06:00:02.999808","MEAN_MOTION":15.0498114,"ECCENTRICITY":0.00012392,"INCLINATION":43.0009,"RA_OF_ASC_NODE":28.2937,"ARG_OF_PERICENTER":306.6655,"MEAN_ANOMALY":172.1062,"EPHEMERIS_TYPE":0,"CLASSIFICATION_TYPE":"U","NORAD_CAT_ID":55601,"ELEMENT_SET_NO":999,"REV_AT_EPOCH":582,"BSTAR":0.0043684995,"MEAN_MOTION_DOT":0.00063352,"MEAN_MOTION_DDOT":0},{"OBJECT_NAME":"STARLINK-5764","OBJECT_ID":"2023-020AK","EPOCH":"2026-03-05T07:06:39.053376","MEAN_MOTION":15.02526929,"ECCENTRICITY":0.00014639,"INCLINATION":43.0004,"RA_OF_ASC_NODE":15.9318,"ARG_OF_PERICENTER":262.6445,"MEAN_ANOMALY":97.4231,"EPHEMERIS_TYPE":0,"CLASSIFICATION_TYPE":"U","NORAD_CAT_ID":55602,"ELEMENT_SET_NO":999,"REV_AT_EPOCH":16840,"BSTAR":6.0913599e-5,"MEAN_MOTION_DOT":6.19e-6,"MEAN_MOTION_DDOT":0},{"OBJECT_NAME":"STARLINK-5735","OBJECT_ID":"2023-020AL","EPOCH":"2026-03-05T05:21:19.485216","MEAN_MOTION":15.02528145,"ECCENTRICITY":0.00034144,"INCLINATION":43.01,"RA_OF_ASC_NODE":16.253,"ARG_OF_PERICENTER":239.0777,"MEAN_ANOMALY":120.973,"EPHEMERIS_TYPE":0,"CLASSIFICATION_TYPE":"U","NORAD_CAT_ID":55603,"ELEMENT_SET_NO":999,"REV_AT_EPOCH":16839,"BSTAR":-7.158912e-6,"MEAN_MOTION_DOT":-3.01e-6,"MEAN_MOTION_DDOT":0},{"OBJECT_NAME":"STARLINK-5748","OBJECT_ID":"2023-020AM","EPOCH":"2026-03-05T06:00:02.999808","MEAN_MOTION":15.07108683,"ECCENTRICITY":0.00016308,"INCLINATION":43.0009,"RA_OF_ASC_NODE":2.6378,"ARG_OF_PERICENTER":266.8069,"MEAN_ANOMALY":75.3841,"EPHEMERIS_TYPE":0,"CLASSIFICATION_TYPE":"U","NORAD_CAT_ID":55604,"ELEMENT_SET_NO":999,"REV_AT_EPOCH":582,"BSTAR":0.0059963292,"MEAN_MOTION_DOT":0.00092574,"MEAN_MOTION_DDOT":0},{"OBJECT_NAME":"STARLINK-5725","OBJECT_ID":"2023-020AN","EPOCH":"2026-03-05T05:14:56.323680","MEAN_MOTION":15.02538921,"ECCENTRICITY":9.898e-5,"INCLINATION":43.0043,"RA_OF_ASC_NODE":16.2202,"ARG_OF_PERICENTER":264.5016,"MEAN_ANOMALY":95.5714,"EPHEMERIS_TYPE":0,"CLASSIFICATION_TYPE":"U","NORAD_CAT_ID":55605,"ELEMENT_SET_NO":999,"REV_AT_EPOCH":16839,"BSTAR":4.3988119e-5,"MEAN_MOTION_DOT":3.91e-6,"MEAN_MOTION_DDOT":0},{"OBJECT_NAME":"STARLINK-5700","OBJECT_ID":"2023-020AQ","EPOCH":"2026-03-05T05:05:20.993856","MEAN_MOTION":15.02537473,"ECCENTRICITY":0.00017761,"INCLINATION":43.0071,"RA_OF_ASC_NODE":16.1751,"ARG_OF_PERICENTER":258.9919,"MEAN_ANOMALY":101.0724,"EPHEMERIS_TYPE":0,"CLASSIFICATION_TYPE":"U","NORAD_CAT_ID":55607,"ELEMENT_SET_NO":999,"REV_AT_EPOCH":16839,"BSTAR":-2.28945e-6,"MEAN_MOTION_DOT":-2.35e-6,"MEAN_MOTION_DDOT":0},{"OBJECT_NAME":"STARLINK-5726","OBJECT_ID":"2023-020AR","EPOCH":"2026-03-05T05:02:09.057984","MEAN_MOTION":15.02535215,"ECCENTRICITY":0.00012521,"INCLINATION":43.0048,"RA_OF_ASC_NODE":16.1591,"ARG_OF_PERICENTER":265.0928,"MEAN_ANOMALY":94.9772,"EPHEMERIS_TYPE":0,"CLASSIFICATION_TYPE":"U","NORAD_CAT_ID":55608,"ELEMENT_SET_NO":999,"REV_AT_EPOCH":16839,"BSTAR":-1.5657111e-5,"MEAN_MOTION_DOT":-4.15e-6,"MEAN_MOTION_DDOT":0},{"OBJECT_NAME":"STARLINK-5719","OBJECT_ID":"2023-020AS","EPOCH":"2026-03-05T06:45:52.297920","MEAN_MOTION":15.0253367,"ECCENTRICITY":0.00015902,"INCLINATION":43.0066,"RA_OF_ASC_NODE":15.8393,"ARG_OF_PERICENTER":258.6406,"MEAN_ANOMALY":101.4258,"EPHEMERIS_TYPE":0,"CLASSIFICATION_TYPE":"U","NORAD_CAT_ID":55609,"ELEMENT_SET_NO":999,"REV_AT_EPOCH":16840,"BSTAR":3.6766948e-5,"MEAN_MOTION_DOT":2.93e-6,"MEAN_MOTION_DDOT":0},{"OBJECT_NAME":"STARLINK-5722","OBJECT_ID":"2023-020AT","EPOCH":"2026-03-05T04:50:58.127424","MEAN_MOTION":15.02535477,"ECCENTRICITY":0.00011056,"INCLINATION":43.0052,"RA_OF_ASC_NODE":16.103,"ARG_OF_PERICENTER":277.6749,"MEAN_ANOMALY":82.3967,"EPHEMERIS_TYPE":0,"CLASSIFICATION_TYPE":"U","NORAD_CAT_ID":55610,"ELEMENT_SET_NO":999,"REV_AT_EPOCH":16839,"BSTAR":1.2322534e-5,"MEAN_MOTION_DOT":-3.7e-7,"MEAN_MOTION_DDOT":0},{"OBJECT_NAME":"STARLINK-5730","OBJECT_ID":"2023-020AU","EPOCH":"2026-03-05T06:23:29.722272","MEAN_MOTION":15.02547937,"ECCENTRICITY":0.00010774,"INCLINATION":43.0052,"RA_OF_ASC_NODE":15.7239,"ARG_OF_PERICENTER":261.762,"MEAN_ANOMALY":98.31,"EPHEMERIS_TYPE":0,"CLASSIFICATION_TYPE":"U","NORAD_CAT_ID":55611,"ELEMENT_SET_NO":999,"REV_AT_EPOCH":16840,"BSTAR":0.00015025918,"MEAN_MOTION_DOT":1.827e-5,"MEAN_MOTION_DDOT":0},{"OBJECT_NAME":"STARLINK-5734","OBJECT_ID":"2023-020AV","EPOCH":"2026-03-05T06:21:54.300384","MEAN_MOTION":15.02530966,"ECCENTRICITY":0.00011406,"INCLINATION":43.0054,"RA_OF_ASC_NODE":15.7151,"ARG_OF_PERICENTER":268.0696,"MEAN_ANOMALY":92.0015,"EPHEMERIS_TYPE":0,"CLASSIFICATION_TYPE":"U","NORAD_CAT_ID":55612,"ELEMENT_SET_NO":999,"REV_AT_EPOCH":16840,"BSTAR":-3.3620482e-5,"MEAN_MOTION_DOT":-6.58e-6,"MEAN_MOTION_DDOT":0}]
